0 DELTA 1 DEB
1 08970U 75004BC  13282.36301604  .00000864  00000-0  28801-3 0   439
2 08970 097.2813 302.8710 0123743 115.1170 013.4089 14.35192361952807
0 DELTA 1 DEB
1 08970U 75004BC  13283.74334095  .00000843  00000-0  28118-3 0   441
2 08970 097.2810 304.0369 0123719 110.9370 305.0632 14.35194588953006
0 DELTA 1 DEB
1 08970U 75004BC  13286.03747633  .00000872  00000-0  29047-3 0   468
2 08970 097.2804 305.9747 0123694 103.9861 278.0897 14.35197861953333
0 DELTA 1 DEB
1 08970U 75004BC  13287.52702918  .00000971  00000-0  32233-3 0   472
2 08970 097.2801 307.2328 0123663 099.4748 054.1230 14.35200694953545
0 DELTA 1 DEB
1 08970U 75004BC  13288.84624020  .00001235  00000-0  40675-3 0   489
2 08970 097.2798 308.3469 0123634 095.4759 030.0807 14.35204990953731
0 DELTA 1 DEB
1 08970U 75004BC  13290.31108653  .00001160  00000-0  38277-3 0   496
2 08970 097.2798 309.5838 0123587 091.0350 038.5067 14.35209141953947
0 DELTA 1 DEB
1 08970U 75004BC  13291.35690652  .00001150  00000-0  37950-3 0   504
2 08970 097.2797 310.4669 0123558 087.8649 041.9634 14.35211366954098
0 DELTA 1 DEB
1 08970U 75004BC  13292.54750714  .00001199  00000-0  39532-3 0   514
2 08970 097.2798 311.4722 0123507 084.2525 073.4730 14.35213930954263
0 DELTA 1 DEB
1 08970U 75004BC  13293.78289595  .00001323  00000-0  43508-3 0   523
2 08970 097.2798 312.5153 0123451 080.5007 336.4092 14.35216278954446
0 DELTA 1 DEB
1 08970U 75004BC  13295.03239841  .00001354  00000-0  44523-3 0   535
2 08970 097.2798 313.5704 0123382 076.7030 312.2792 14.35219360954629
